NORAD_CAT_ID,OBJECT_NAME,OBJECT_TYPE,EPOCH,MEAN_MOTION,ECCENTRICITY,INCLINATION,RA_OF_ASC_NODE,ARG_OF_PERICENTER,MEAN_ANOMALY,BSTAR,MEAN_MOTION_DOT,MEAN_MOTION_DDOT,TLE_LINE0,TLE_LINE1,TLE_LINE2,SEMIMAJOR_AXIS,PERIOD,APOGEE,PERIGEE,DECAYED
56796.0,STARLINK-6049,PAYLOAD,2023-12-04 05:46:39,14.98328893,0.0002263,70.0014,268.3276,246.4674,113.6247,-0.00020013,-2.48e-05,0.0,0 STARLINK-6049,1 56796U 23078AF  23338.24073653 -.00002480  00000-0 -20013-3 0  9997,2 56796  70.0014 268.3276 0002263 246.4674 113.6247 14.98328893 28882,6950.196,96.107,573.634,570.488,0.0
56796.0,STARLINK-6049,PAYLOAD,2023-12-05 02:36:23,14.98319762,0.0002057,70.0014,266.136,274.5132,85.5792,0.00041166,4.821e-05,0.0,0 STARLINK-6049,1 56796U 23078AF  23339.10860918  .00004821  00000-0  41166-3 0  9992,2 56796  70.0014 266.1360 0002057 274.5132  85.5792 14.98319762 29275,6950.225,96.108,573.519,570.66,0.0
56796.0,STARLINK-6049,PAYLOAD,2023-12-05 05:48:39,14.98322988,0.000159,70.0017,265.7998,250.5112,109.5875,0.00043183,5.062e-05,0.0,0 STARLINK-6049,1 56796U 23078AF  23339.24212670  .00005062  00000-0  43183-3 0  9992,2 56796  70.0017 265.7998 0001590 250.5112 109.5875 14.98322988 29030,6950.215,96.107,573.185,570.974,0.0
56796.0,STARLINK-6049,PAYLOAD,2023-12-05 18:37:43,14.98336814,0.0001962,70.0015,264.4553,262.4967,97.5969,0.00020597,2.366e-05,0.0,0 STARLINK-6049,1 56796U 23078AF  23339.77620369  .00002366  00000-0  20597-3 0  9996,2 56796  70.0015 264.4553 0001962 262.4967  97.5969 14.98336814 29374,6950.172,96.107,573.4,570.673,0.0
56796.0,STARLINK-6049,PAYLOAD,2023-12-06 04:14:32,14.98325099,0.0002252,70.0013,263.4438,281.2467,78.8439,0.00034283,3.999e-05,0.0,0 STARLINK-6049,1 56796U 23078AF  23340.17676623  .00003999  00000-0  34283-3 0  9996,2 56796  70.0013 263.4438 0002252 281.2467  78.8439 14.98325099 29434,6950.208,96.107,573.638,570.508,0.0
56796.0,STARLINK-6049,PAYLOAD,2023-12-07 04:16:33,14.98339137,0.0002151,70.0016,260.9163,304.6985,55.3971,-0.00017316,-2.159e-05,0.0,0 STARLINK-6049,1 56796U 23078AF  23341.17816828 -.00002159  00000-0 -17316-3 0  9997,2 56796  70.0016 260.9163 0002151 304.6985  55.3971 14.98339137 29582,6950.165,96.106,573.525,570.535,0.0
56796.0,STARLINK-6049,PAYLOAD,2023-12-08 04:18:34,14.9832667,0.000178,70.0011,258.3924,287.6232,72.4733,-8.2648e-05,-1.079e-05,0.0,0 STARLINK-6049,1 56796U 23078AF  23342.17957022 -.00001079  00000-0 -82648-4 0  9991,2 56796  70.0011 258.3924 0001780 287.6232  72.4733 14.98326670 29736,6950.203,96.107,573.305,570.831,0.0
56796.0,STARLINK-6049,PAYLOAD,2023-12-08 18:43:47,14.98325278,0.0002275,70.0001,256.8783,282.4686,77.6219,4.5054e-06,-3.9e-07,0.0,0 STARLINK-6049,1 56796U 23078AF  23342.78040823 -.00000039  00000-0  45054-5 0  9995,2 56796  70.0001 256.8783 0002275 282.4686  77.6219 14.98325278 29567,6950.207,96.107,573.654,570.491,0.0
56796.0,STARLINK-6049,PAYLOAD,2023-12-09 04:20:35,14.98325124,0.0002435,70.0,255.8696,279.5426,80.5458,3.2718e-06,-5.4e-07,0.0,0 STARLINK-6049,1 56796U 23078AF  23343.18096934 -.00000054  00000-0  32718-5 0  9994,2 56796  70.0000 255.8696 0002435 279.5426  80.5458 14.98325124 29888,6950.208,96.107,573.765,570.381,0.0
56796.0,STARLINK-6049,PAYLOAD,2023-12-09 17:09:39,14.98329161,0.0002704,70.001,254.5157,274.0518,86.0332,8.7822e-05,9.55e-06,0.0,0 STARLINK-6049,1 56796U 23078AF  23343.71504334  .00000955  00000-0  87822-4 0  9995,2 56796  70.0010 254.5157 0002704 274.0518  86.0332 14.98329161 29964,6950.195,96.107,573.94,570.181,0.0
56796.0,STARLINK-6049,PAYLOAD,2023-12-10 18:47:48,14.98337416,0.0003059,69.9989,251.8283,268.2935,91.7873,4.6689e-05,4.64e-06,0.0,0 STARLINK-6049,1 56796U 23078AF  23344.78319715  .00000464  00000-0  46689-4 0  9991,2 56796  69.9989 251.8283 0003059 268.2935  91.7873 14.98337416 30123,6950.17,96.107,574.161,569.909,0.0
56796.0,STARLINK-6049,PAYLOAD,2023-12-10 22:00:04,14.98336346,0.0003067,69.9985,251.4928,265.3115,94.7693,2.8365e-05,2.45e-06,0.0,0 STARLINK-6049,1 56796U 23078AF  23344.91671741  .00000245  00000-0  28365-4 0  9994,2 56796  69.9985 251.4928 0003067 265.3115  94.7693 14.98336346 29883,6950.173,96.107,574.17,569.907,0.0
56796.0,STARLINK-6049,PAYLOAD,2023-12-11 04:24:36,14.98336046,0.0003061,69.9986,250.8196,265.1153,94.9656,2.2271e-05,1.73e-06,0.0,0 STARLINK-6049,1 56796U 23078AF  23345.18375659  .00000173  00000-0  22271-4 0  9993,2 56796  69.9986 250.8196 0003061 265.1153  94.9656 14.98336046 29921,6950.174,96.107,574.167,569.912,0.0
56796.0,STARLINK-6049,PAYLOAD,2023-12-11 20:25:57,14.98335292,0.0002668,69.9995,249.1363,261.5256,98.5601,-4.1992e-05,-5.94e-06,0.0,0 STARLINK-6049,1 56796U 23078AF  23345.85135724 -.00000594  00000-0 -41992-4 0  9994,2 56796  69.9995 249.1363 0002668 261.5256  98.5601 14.98335292 30287,6950.177,96.107,573.896,570.187,0.0
56796.0,STARLINK-6049,PAYLOAD,2023-12-11 22:02:05,14.98335502,0.0002647,69.9995,248.9681,261.8374,98.2485,-3.865e-05,-5.54e-06,0.0,0 STARLINK-6049,1 56796U 23078AF  23345.91811674 -.00000554  00000-0 -38650-4 0  9999,2 56796  69.9995 248.9681 0002647 261.8374  98.2485 14.98335502 30032,6950.176,96.107,573.881,570.201,0.0
56796.0,STARLINK-6049,PAYLOAD,2023-12-12 02:50:29,14.98336528,0.0002594,69.9996,248.4632,261.5447,98.5418,-2.6189e-05,-4.05e-06,0.0,0 STARLINK-6049,1 56796U 23078AF  23346.11839492 -.00000405  00000-0 -26189-4 0  9999,2 56796  69.9996 248.4632 0002594 261.5447  98.5418 14.98336528 30064,6950.173,96.107,573.841,570.235,0.0
56796.0,STARLINK-6049,PAYLOAD,2023-12-12 20:27:58,14.9832913,0.0002483,69.9998,246.6115,260.9425,99.1453,-5.8113e-06,-1.62e-06,0.0,0 STARLINK-6049,1 56796U 23078AF  23346.85275721 -.00000162  00000-0 -58113-5 0  9992,2 56796  69.9998 246.6115 0002483 260.9425  99.1453 14.98329130 30436,6950.196,96.107,573.786,570.335,0.0
56796.0,STARLINK-6049,PAYLOAD,2023-12-12 22:04:06,14.98328751,0.0002582,69.9994,246.4419,270.8172,89.2691,-1.1004e-05,-2.24e-06,0.0,0 STARLINK-6049,1 56796U 23078AF  23346.91951807 -.00000224  00000-0 -11004-4 0  9991,2 56796  69.9994 246.4419 0002582 270.8172  89.2691 14.98328751 30180,6950.197,96.107,573.856,570.267,0.0
56796.0,STARLINK-6049,PAYLOAD,2023-12-13 02:52:30,14.98331865,0.0002605,69.9993,245.9371,270.4233,89.6627,1.9563e-05,1.4e-06,0.0,0 STARLINK-6049,1 56796U 23078AF  23347.11979514  .00000140  00000-0  19563-4 0  9992,2 56796  69.9993 245.9371 0002605 270.4233  89.6627 14.98331865 30217,6950.187,96.107,573.863,570.242,0.0
56796.0,STARLINK-6049,PAYLOAD,2023-12-13 20:29:58,14.98332012,0.0002636,69.9991,244.0854,270.0897,89.996,-1.3381e-05,-2.53e-06,0.0,0 STARLINK-6049,1 56796U 23078AF  23347.85415479 -.00000253  00000-0 -13381-4 0  9997,2 56796  69.9991 244.0854 0002636 270.0897  89.9960 14.98332012 30585,6950.187,96.107,573.884,570.22,0.0
56796.0,STARLINK-6049,PAYLOAD,2023-12-13 22:06:07,14.98332261,0.0002631,69.9991,243.9171,270.1702,89.9155,-9.6177e-06,-2.08e-06,0.0,0 STARLINK-6049,1 56796U 23078AF  23347.92091442 -.00000208  00000-0 -96177-5 0  9990,2 56796  69.9991 243.9171 0002631 270.1702  89.9155 14.98332261 30331,6950.186,96.107,573.879,570.222,0.0
56796.0,STARLINK-6049,PAYLOAD,2023-12-14 02:54:30,14.98334724,0.0002621,69.9991,243.4123,270.7054,89.3804,1.9056e-05,1.34e-06,0.0,0 STARLINK-6049,1 56796U 23078AF  23348.12119164  .00000134  00000-0  19056-4 0  9991,2 56796  69.9991 243.4123 0002621 270.7054  89.3804 14.98334724 30362,6950.178,96.107,573.865,570.222,0.0
56796.0,STARLINK-6049,PAYLOAD,2023-12-14 20:31:59,14.98329671,0.0002587,69.9991,241.5604,268.8321,91.2542,4.5713e-06,-3.8e-07,0.0,0 STARLINK-6049,1 56796U 23078AF  23348.85555453 -.00000038  00000-0  45713-5 0  9990,2 56796  69.9991 241.5604 0002587 268.8321  91.2542 14.98329671 30738,6950.194,96.107,573.857,570.261,0.0
56796.0,STARLINK-6049,PAYLOAD,2023-12-14 22:08:07,14.98329938,0.0002579,69.999,241.3921,268.4003,91.6861,8.2103e-06,5e-08,0.0,0 STARLINK-6049,1 56796U 23078AF  23348.92231420  .00000005  00000-0  82103-5 0  9990,2 56796  69.9990 241.3921 0002579 268.4003  91.6861 14.98329938 30487,6950.193,96.107,573.851,570.266,0.0
56796.0,STARLINK-6049,PAYLOAD,2023-12-15 02:56:31,14.98333215,0.0002559,69.9991,240.8873,268.8759,91.2107,4.488e-05,4.43e-06,0.0,0 STARLINK-6049,1 56796U 23078AF  23349.12259086  .00000443  00000-0  44880-4 0  9996,2 56796  69.9991 240.8873 0002559 268.8759  91.2107 14.98333215 30514,6950.183,96.107,573.827,570.269,0.0
56796.0,STARLINK-6049,PAYLOAD,2023-12-15 22:10:09,14.98325781,0.0002265,69.9999,238.8696,250.4553,109.6362,-4.6562e-05,-6.48e-06,0.0,0 STARLINK-6049,1 56796U 23078AF  23349.92371810 -.00000648  00000-0 -46562-4 0  9992,2 56796  69.9999 238.8696 0002265 250.4553 109.6362 14.98325781 30634,6950.206,96.107,573.645,570.497,0.0
56796.0,STARLINK-6049,PAYLOAD,2023-12-16 02:58:35,14.98297321,0.0002539,69.9994,238.3643,267.5803,92.5065,-0.00038303,-4.656e-05,0.0,0 STARLINK-6049,1 56796U 23078AF  23350.12402544 -.00004656  00000-0 -38303-3 0  9991,2 56796  69.9994 238.3643 0002539 267.5803  92.5065 14.98297321 30927,6950.294,96.109,573.924,570.394,0.0
56796.0,STARLINK-6049,PAYLOAD,2023-12-16 18:59:55,14.98310098,0.0002371,70.0005,236.6807,265.3732,94.7156,-0.0001543,-1.932e-05,0.0,0 STARLINK-6049,1 56796U 23078AF  23350.79161948 -.00001932  00000-0 -15430-3 0  9994,2 56796  70.0005 236.6807 0002371 265.3732  94.7156 14.98310098 31021,6950.254,96.108,573.767,570.472,0.0
56796.0,STARLINK-6049,PAYLOAD,2023-12-16 22:12:11,14.98322088,0.0002376,69.9997,236.345,247.5461,112.5446,-4.5772e-05,-6.39e-06,0.0,0 STARLINK-6049,1 56796U 23078AF  23350.92513047 -.00000639  00000-0 -45772-4 0  9996,2 56796  69.9997 236.3450 0002376 247.5461 112.5446 14.98322088 30780,6950.217,96.108,573.734,570.431,0.0
56796.0,STARLINK-6049,PAYLOAD,2023-12-17 03:00:35,14.98322068,0.0002525,69.9991,235.8389,259.7171,100.3704,-4.5316e-05,-6.33e-06,0.0,0 STARLINK-6049,1 56796U 23078AF  23351.12541157 -.00000633  00000-0 -45316-4 0  9990,2 56796  69.9991 235.8389 0002525 259.7171 100.3704 14.98322068 31071,6950.217,96.108,573.837,570.327,0.0
